*******************************************************************************
Ephemeris / WWW_USER Mon Mar 10 08:42:54 2025 Pasadena, USA      / Horizons    
*******************************************************************************
Target body name: (2018 PL28)                     {source: JPL#6}
Center body name: Earth (399)                     {source: DE441}
Center-site name: Mauna Kea
*******************************************************************************
Start time      : A.D. 2019-Jan-19 04:15:00.0000 UT      
Stop  time      : A.D. 2019-Jan-19 16:49:00.0000 UT      
Step-size       : 1 minutes
*******************************************************************************
Target pole/equ : undefined
Target radii    : undefined                                                    
Center geodetic : 204.5278, 19.8260847, 4.21024   {E-lon(deg),Lat(deg),Alt(km)}
Center cylindric: 204.5278, 6006.35451, 2151.0229 {E-lon(deg),Dxy(km),Dz(km)}
Center pole/equ : ITRF93                          {East-longitude positive}
Center radii    : 6378.137, 6378.137, 6356.752 km {Equator_a, b, pole_c}       
Target primary  : Sun
Vis. interferer : MOON (R_eq= 1737.400) km        {source: DE441}
Rel. light bend : Sun                             {source: DE441}
Rel. lght bnd GM: 1.3271E+11 km^3/s^2                                          
Small-body perts: Yes                             {source: SB441-N16}
Atmos refraction: NO (AIRLESS)
RA format       : HMS
Time format     : CAL 
Calendar mode   : Mixed Julian/Gregorian
RTS-only print  : NO       
EOP file        : eop.250307.p250603                                           
EOP coverage    : DATA-BASED 1962-JAN-20 TO 2025-MAR-07. PREDICTS-> 2025-JUN-02
Units conversion: 1 au= 149597870.700 km, c= 299792.458 km/s, 1 day= 86400.0 s 
Table cut-offs 1: Elevation (-90.0deg=NO ),Airmass (>38.000=NO), Daylight (YES)
Table cut-offs 2: Solar elongation (  0.0,180.0=NO ),Local Hour Angle( 0.0=NO )
Table cut-offs 3: RA/DEC angular rate (     0.0=NO )                           
*******************************************************************************
Initial IAU76/J2000 heliocentric ecliptic osculating elements (au, days, deg.):
  EPOCH=  2457854.5 ! 2017-Apr-11.00 (TDB)         Residual RMS= .19092        
   EC= .8623380004677549   QR= 2.686075926237564   TP= 2457951.5509793968      
   OM= 350.7805373480467   W=  275.0956674869335   IN= 74.19591911353062       
  Equivalent ICRF heliocentric cartesian coordinates (au, au/d):
   X=-1.230595634603956E+00  Y= 5.216934222523280E-01  Z=-2.512561684350396E+00
  VX= 1.337943797263742E-02 VY=-1.672601025687851E-03 VZ=-3.313586071138778E-03
Asteroid physical parameters (km, seconds, rotational period in hours):        
   GM= n.a.                RAD= n.a.               ROTPER= n.a.                
   H= 14.87                G= .150                 B-V= n.a.                   
                           ALBEDO= n.a.            STYP= n.a.                  
*******************************************************************************
 Date__(UT)__HR:MN     R.A._________(ICRF)_________DEC
******************************************************
$$SOE
 2019-Jan-19 10:24  m  22 54 05.799926 +03 40 05.46618
 2019-Jan-19 10:25  m  22 54 05.818074 +03 40 05.69613
 2019-Jan-19 10:26  m  22 54 05.836224 +03 40 05.92608
 2019-Jan-19 10:27  m  22 54 05.854374 +03 40 06.15603
 2019-Jan-19 10:28  m  22 54 05.872526 +03 40 06.38599
 2019-Jan-19 10:29  m  22 54 05.890679 +03 40 06.61595
 2019-Jan-19 10:30  m  22 54 05.908834 +03 40 06.84591
 2019-Jan-19 10:31  m  22 54 05.926990 +03 40 07.07587
 2019-Jan-19 10:32  m  22 54 05.945147 +03 40 07.30584
 2019-Jan-19 10:33  m  22 54 05.963306 +03 40 07.53580
 2019-Jan-19 10:34  m  22 54 05.981466 +03 40 07.76577
 2019-Jan-19 10:35  m  22 54 05.999627 +03 40 07.99574
 2019-Jan-19 10:36  m  22 54 06.017789 +03 40 08.22572
 2019-Jan-19 10:37  m  22 54 06.035953 +03 40 08.45569
 2019-Jan-19 10:38  m  22 54 06.054118 +03 40 08.68567
 2019-Jan-19 10:39  m  22 54 06.072284 +03 40 08.91565
 2019-Jan-19 10:40  m  22 54 06.090452 +03 40 09.14563
 2019-Jan-19 10:41  m  22 54 06.108620 +03 40 09.37562
 2019-Jan-19 10:42  m  22 54 06.126790 +03 40 09.60560
 2019-Jan-19 10:43  m  22 54 06.144962 +03 40 09.83559
 2019-Jan-19 10:44  m  22 54 06.163134 +03 40 10.06558
 2019-Jan-19 10:45  m  22 54 06.181308 +03 40 10.29558
 2019-Jan-19 10:46  m  22 54 06.199483 +03 40 10.52557
 2019-Jan-19 10:47  m  22 54 06.217659 +03 40 10.75557
 2019-Jan-19 10:48  m  22 54 06.235836 +03 40 10.98557
 2019-Jan-19 10:49  m  22 54 06.254015 +03 40 11.21557
 2019-Jan-19 10:50  m  22 54 06.272195 +03 40 11.44558
 2019-Jan-19 10:51  m  22 54 06.290376 +03 40 11.67558
 2019-Jan-19 10:52  m  22 54 06.308558 +03 40 11.90559
 2019-Jan-19 10:53  m  22 54 06.326741 +03 40 12.13560
 2019-Jan-19 10:54  m  22 54 06.344926 +03 40 12.36562
 2019-Jan-19 10:55  m  22 54 06.363112 +03 40 12.59563
 2019-Jan-19 10:56  m  22 54 06.381299 +03 40 12.82565
 2019-Jan-19 10:57  m  22 54 06.399487 +03 40 13.05567
 2019-Jan-19 10:58  m  22 54 06.417676 +03 40 13.28569
 2019-Jan-19 10:59  m  22 54 06.435867 +03 40 13.51572
 2019-Jan-19 11:00  m  22 54 06.454058 +03 40 13.74574
 2019-Jan-19 11:01  m  22 54 06.472251 +03 40 13.97577
 2019-Jan-19 11:02  m  22 54 06.490445 +03 40 14.20580
 2019-Jan-19 11:03  m  22 54 06.508639 +03 40 14.43584
 2019-Jan-19 11:04  m  22 54 06.526836 +03 40 14.66587
 2019-Jan-19 11:05  m  22 54 06.545033 +03 40 14.89591
 2019-Jan-19 11:06  m  22 54 06.563231 +03 40 15.12595
 2019-Jan-19 11:07  m  22 54 06.581430 +03 40 15.35599
 2019-Jan-19 11:08  m  22 54 06.599631 +03 40 15.58604
 2019-Jan-19 11:09  m  22 54 06.617832 +03 40 15.81609
 2019-Jan-19 11:10  m  22 54 06.636035 +03 40 16.04614
 2019-Jan-19 11:11  m  22 54 06.654239 +03 40 16.27619
 2019-Jan-19 11:12  m  22 54 06.672444 +03 40 16.50624
 2019-Jan-19 11:13  m  22 54 06.690650 +03 40 16.73630
 2019-Jan-19 11:14  m  22 54 06.708856 +03 40 16.96636
 2019-Jan-19 11:15  m  22 54 06.727064 +03 40 17.19642
 2019-Jan-19 11:16  m  22 54 06.745273 +03 40 17.42648
 2019-Jan-19 11:17  m  22 54 06.763484 +03 40 17.65655
 2019-Jan-19 11:18  m  22 54 06.781695 +03 40 17.88662
 2019-Jan-19 11:19  m  22 54 06.799907 +03 40 18.11669
 2019-Jan-19 11:20  m  22 54 06.818120 +03 40 18.34676
 2019-Jan-19 11:21  m  22 54 06.836334 +03 40 18.57684
 2019-Jan-19 11:22  m  22 54 06.854549 +03 40 18.80692
 2019-Jan-19 11:23  m  22 54 06.872765 +03 40 19.03700
 2019-Jan-19 11:24  m  22 54 06.890982 +03 40 19.26708
 2019-Jan-19 11:25  m  22 54 06.909201 +03 40 19.49716
 2019-Jan-19 11:26  m  22 54 06.927420 +03 40 19.72725
 2019-Jan-19 11:27  m  22 54 06.945640 +03 40 19.95734
 2019-Jan-19 11:28  m  22 54 06.963861 +03 40 20.18743
 2019-Jan-19 11:29  m  22 54 06.982083 +03 40 20.41753
 2019-Jan-19 11:30  m  22 54 07.000306 +03 40 20.64763
 2019-Jan-19 11:31  m  22 54 07.018530 +03 40 20.87772
 2019-Jan-19 11:32  m  22 54 07.036755 +03 40 21.10783
 2019-Jan-19 11:33  m  22 54 07.054980 +03 40 21.33793
 2019-Jan-19 11:34  m  22 54 07.073207 +03 40 21.56804
 2019-Jan-19 11:35  m  22 54 07.091435 +03 40 21.79815
 2019-Jan-19 11:36  m  22 54 07.109663 +03 40 22.02826
 2019-Jan-19 11:37  m  22 54 07.127893 +03 40 22.25837
 2019-Jan-19 11:38  m  22 54 07.146123 +03 40 22.48849
 2019-Jan-19 11:39  m  22 54 07.164354 +03 40 22.71861
 2019-Jan-19 11:40  m  22 54 07.182586 +03 40 22.94873
 2019-Jan-19 11:41  m  22 54 07.200819 +03 40 23.17885
 2019-Jan-19 11:42  m  22 54 07.219053 +03 40 23.40898
 2019-Jan-19 11:43  m  22 54 07.237288 +03 40 23.63911
 2019-Jan-19 11:44  m  22 54 07.255524 +03 40 23.86924
 2019-Jan-19 11:45  m  22 54 07.273760 +03 40 24.09937
 2019-Jan-19 11:46  m  22 54 07.291997 +03 40 24.32951
 2019-Jan-19 11:47  m  22 54 07.310236 +03 40 24.55965
 2019-Jan-19 11:48  m  22 54 07.328475 +03 40 24.78979
 2019-Jan-19 11:49  m  22 54 07.346714 +03 40 25.01993
 2019-Jan-19 11:50  m  22 54 07.364955 +03 40 25.25007
 2019-Jan-19 11:51  m  22 54 07.383196 +03 40 25.48022
 2019-Jan-19 11:52  m  22 54 07.401439 +03 40 25.71037
 2019-Jan-19 11:53  m  22 54 07.419682 +03 40 25.94053
 2019-Jan-19 11:54  m  22 54 07.437925 +03 40 26.17068
 2019-Jan-19 11:55  m  22 54 07.456170 +03 40 26.40084
 2019-Jan-19 11:56  m  22 54 07.474415 +03 40 26.63100
 2019-Jan-19 11:57  m  22 54 07.492662 +03 40 26.86116
 2019-Jan-19 11:58  m  22 54 07.510908 +03 40 27.09133
 2019-Jan-19 11:59  m  22 54 07.529156 +03 40 27.32150
 2019-Jan-19 12:00  m  22 54 07.547405 +03 40 27.55167
 2019-Jan-19 12:01  m  22 54 07.565654 +03 40 27.78184
 2019-Jan-19 12:02  m  22 54 07.583904 +03 40 28.01202
 2019-Jan-19 12:03  m  22 54 07.602154 +03 40 28.24220
 2019-Jan-19 12:04  m  22 54 07.620405 +03 40 28.47238
 2019-Jan-19 12:05  m  22 54 07.638658 +03 40 28.70256
 2019-Jan-19 12:06  m  22 54 07.656910 +03 40 28.93274
 2019-Jan-19 12:07  m  22 54 07.675164 +03 40 29.16293
 2019-Jan-19 12:08  m  22 54 07.693418 +03 40 29.39312
 2019-Jan-19 12:09  m  22 54 07.711673 +03 40 29.62332
 2019-Jan-19 12:10  m  22 54 07.729928 +03 40 29.85351
 2019-Jan-19 12:11  m  22 54 07.748184 +03 40 30.08371
 2019-Jan-19 12:12  m  22 54 07.766441 +03 40 30.31391
 2019-Jan-19 12:13  m  22 54 07.784699 +03 40 30.54411
 2019-Jan-19 12:14  m  22 54 07.802957 +03 40 30.77432
 2019-Jan-19 12:15  m  22 54 07.821215 +03 40 31.00453
 2019-Jan-19 12:16  m  22 54 07.839475 +03 40 31.23474
 2019-Jan-19 12:17  m  22 54 07.857735 +03 40 31.46495
 2019-Jan-19 12:18  m  22 54 07.875996 +03 40 31.69517
 2019-Jan-19 12:19  m  22 54 07.894257 +03 40 31.92539
 2019-Jan-19 12:20  m  22 54 07.912519 +03 40 32.15561
 2019-Jan-19 12:21  m  22 54 07.930781 +03 40 32.38583
 2019-Jan-19 12:22  m  22 54 07.949044 +03 40 32.61606
 2019-Jan-19 12:23  m  22 54 07.967308 +03 40 32.84629
 2019-Jan-19 12:24  m  22 54 07.985572 +03 40 33.07652
 2019-Jan-19 12:25  m  22 54 08.003837 +03 40 33.30675
 2019-Jan-19 12:26  m  22 54 08.022102 +03 40 33.53699
